ONEWEB-0425             
1 51628U 22012G   26158.41022693  .00000255  00000+0  69379-3 0  9996
2 51628  87.8843  38.2142 0002159  79.8055 280.3316 13.10376300208044
ONEWEB-0428             
1 51629U 22012H   26158.39027688 -.00000608  00000+0 -17772-2 0  9996
2 51629  87.8844  38.2257 0001760  80.3267 279.8059 13.10373428208003
ONEWEB-0431             
1 51630U 22012J   26158.36027985  .00000388  00000+0  10744-2 0  9990
2 51630  87.8844  38.2234 0001342  95.5654 264.5627 13.10369486208050
ONEWEB-0434             
1 51631U 22012K   26158.41367887  .00000275  00000+0  75027-3 0  9996
2 51631  87.8848  38.2371 0002386  78.5951 281.5444 13.10375549208049
ONEWEB-0435             
1 51632U 22012L   26158.42182133  .00001356  00000+0  38481-2 0  9990
2 51632  87.8834  38.2233 0001426  75.8489 284.2796 13.10367847208033
ONEWEB-0436             
1 51633U 22012M   26158.34050953 -.00000172  00000+0 -47640-3 0  9991
2 51633  87.9149   7.8038 0001608  85.2479 274.8836 13.17648414212387
ONEWEB-0438             
1 51634U 22012N   26158.40523267 -.00000070  00000+0 -23805-3 0  9996
2 51634  87.8846  38.2289 0001990  82.7386 277.3967 13.10376102208068
ONEWEB-0439             
1 51635U 22012P   26158.40855505  .00000206  00000+0  55393-3 0  9996
2 51635  87.8843  38.2159 0001863  79.1659 280.9678 13.10375525208049
ONEWEB-0442             
1 51636U 22012Q   26158.33292250  .00000022  00000+0  22906-4 0  9992
2 51636  87.9141   7.8389 0002423  87.6447 272.4962 13.17648472212375
ONEWEB-0443             
1 51637U 22012R   26158.27638637  .00000020  00000+0  18806-4 0  9991
2 51637  87.9141   7.8511 0001918  75.6867 284.4477 13.17648917212417
ONEWEB-0444             
1 51638U 22012S   26157.63501532 -.00000315  00000+0 -93809-3 0  9998
2 51638  87.8840  38.3692 0001907  76.4914 283.6425 13.10376328207956
ONEWEB-0445             
1 51639U 22012T   26158.42018574  .00000428  00000+0  11884-2 0  9991
2 51639  87.8857  38.1999 0001780  87.4500 272.6831 13.10373957208062
ONEWEB-0446             
1 51640U 22012U   26158.16784837 -.00000340  00000+0 -10096-2 0  9995
2 51640  87.8846  38.2789 0001824  88.0743 272.0593 13.10375129208012
ONEWEB-0448             
1 51641U 22012V   26158.40191480 -.00000173  00000+0 -53251-3 0  9994
2 51641  87.8844  38.2299 0001777  77.8794 282.2533 13.10376217208012
ONEWEB-0449             
1 51642U 22012W   26158.40691267  .00014583  00000+0  41717-1 0  9993
2 51642  87.8857  38.2128 0002169  93.4389 266.6986 13.10303902208028
ONEWEB-0451             
1 51643U 22012X   26158.33714705 -.00000058  00000+0 -18288-3 0  9992
2 51643  87.9152   7.8018 0002051  84.3163 275.8202 13.17648788212363
ONEWEB-0452             
1 51644U 22012Y   26158.33544715 -.00000023  00000+0 -91582-4 0  9996
2 51644  87.9143   7.8397 0001938  79.2734 280.8615 13.17649278212374
ONEWEB-0456             
1 51646U 22012AA  26158.41684310  .00000596  00000+0  16709-2 0  9992
2 51646  87.8849  38.1987 0001703  76.9997 283.1320 13.10372312208060
ONEWEB-0457             
1 51647U 22012AB  26158.39345514 -.00000546  00000+0 -15993-2 0  9991
2 51647  87.8849  38.2216 0002017  92.1386 267.9972 13.10373995208069
ONEWEB-0458             
1 51648U 22012AC  26158.41520259 -.00000370  00000+0 -10969-2 0  9999
2 51648  87.8855  38.2047 0001874  76.2339 283.8997 13.10389661208027
ONEWEB-0461             
1 51649U 22012AD  26158.28144380  .00000012  00000+0 -29621-5 0  9992
2 51649  87.9151   7.8270 0001877  90.6777 269.4570 13.17648095212586
ONEWEB-0463             
1 51650U 22012AE  26157.65540434 -.00000130  00000+0 -36802-3 0  9993
2 51650  87.9141   7.9751 0001893  92.4505 267.6843 13.17649029212287
ONEWEB-0464             
1 51651U 22012AF  26158.41187934  .00000413  00000+0  11480-2 0  9997
2 51651  87.8832  38.2278 0001770  74.4919 285.6404 13.10374673208043
ONEWEB-0468             
1 51652U 22012AG  26158.41852403  .00000570  00000+0  15978-2 0  9998
2 51652  87.8814  38.2205 0001702  74.2852 285.8463 13.10373335208022
ONEWEB-0473             
1 51653U 22012AH  26158.40356972 -.00000047  00000+0 -17157-3 0  9991
2 51653  87.8845  38.2250 0001844  77.9236 282.2098 13.10375425208027
ONEWEB-0474             
1 51654U 22012AJ  26158.39525922 -.00000413  00000+0 -12192-2 0  9993
2 51654  87.8852  38.2103 0001740  71.4992 288.6324 13.10374146208016
ONEWEB-0475             
1 51655U 22012AK  26158.27470385 -.00000042  00000+0 -14196-3 0  9998
2 51655  87.9143   7.8447 0001799  65.9336 294.1984 13.17648538212383
ONEWEB-0490             
1 54113U 22138A   26158.12676237  .00000055  00000+0  10501-3 0  9995
2 54113  87.9170 306.9710 0001636  96.5569 263.5750 13.19724288175501
ONEWEB-0492             
1 54114U 22138B   26158.15204777 -.00000051  00000+0 -15927-3 0  9990
2 54114  87.9165 306.9686 0001677 103.6004 256.5315 13.19725619175516
ONEWEB-0495             
1 54115U 22138C   26158.12992086  .00000068  00000+0  13863-3 0  9998
2 54115  87.9162 306.9753 0001175  92.1005 268.0262 13.19724792175492
ONEWEB-0497             
1 54116U 22138D   26158.29419036  .00000190  00000+0  44210-3 0  9992
2 54116  87.9167 306.9343 0001775  97.8121 262.3213 13.19723970175502
