OBJECT_NAME,OBJECT_ID,EPOCH,MEAN_MOTION,ECCENTRICITY,INCLINATION,RA_OF_ASC_NODE,ARG_OF_PERICENTER,MEAN_ANOMALY,EPHEMERIS_TYPE,CLASSIFICATION_TYPE,NORAD_CAT_ID,ELEMENT_SET_NO,REV_AT_EPOCH,BSTAR,MEAN_MOTION_DOT,MEAN_MOTION_DDOT
ONEWEB-0425,2022-012G,2026-06-07T09:50:43.606752,13.10376300,.0002159,87.8843,38.2142,79.8055,280.3316,0,U,51628,999,20804,.69379E-3,.255E-5,0
ONEWEB-0428,2022-012H,2026-06-07T09:21:59.922432,13.10373428,.000176,87.8844,38.2257,80.3267,279.8059,0,U,51629,999,20800,-.17772E-2,-.608E-5,0
ONEWEB-0431,2022-012J,2026-06-07T08:38:48.179040,13.10369486,.0001342,87.8844,38.2234,95.5654,264.5627,0,U,51630,999,20805,.10744E-2,.388E-5,0
ONEWEB-0434,2022-012K,2026-06-07T09:55:41.854368,13.10375549,.0002386,87.8848,38.2371,78.5951,281.5444,0,U,51631,999,20804,.75027E-3,.275E-5,0
ONEWEB-0435,2022-012L,2026-06-07T10:07:25.362912,13.10367847,.0001426,87.8834,38.2233,75.8489,284.2796,0,U,51632,999,20803,.38481E-2,.1356E-4,0
ONEWEB-0436,2022-012M,2026-06-07T08:10:20.023392,13.17648414,.0001608,87.9149,7.8038,85.2479,274.8836,0,U,51633,999,21238,-.4764E-3,-.172E-5,0
ONEWEB-0438,2022-012N,2026-06-07T09:43:32.102688,13.10376102,.000199,87.8846,38.2289,82.7386,277.3967,0,U,51634,999,20806,-.23805E-3,-.7E-6,0
ONEWEB-0439,2022-012P,2026-06-07T09:48:19.156320,13.10375525,.0001863,87.8843,38.2159,79.1659,280.9678,0,U,51635,999,20804,.55393E-3,.206E-5,0
ONEWEB-0442,2022-012Q,2026-06-07T07:59:24.504000,13.17648472,.0002423,87.9141,7.8389,87.6447,272.4962,0,U,51636,999,21237,.22906E-4,.22E-6,0
ONEWEB-0443,2022-012R,2026-06-07T06:37:59.782368,13.17648917,.0001918,87.9141,7.8511,75.6867,284.4477,0,U,51637,999,21241,.18806E-4,.2E-6,0
ONEWEB-0444,2022-012S,2026-06-06T15:14:25.323648,13.10376328,.0001907,87.8840,38.3692,76.4914,283.6425,0,U,51638,999,20795,-.93809E-3,-.315E-5,0
ONEWEB-0445,2022-012T,2026-06-07T10:05:04.047936,13.10373957,.000178,87.8857,38.1999,87.4500,272.6831,0,U,51639,999,20806,.11884E-2,.428E-5,0
ONEWEB-0446,2022-012U,2026-06-07T04:01:42.099168,13.10375129,.0001824,87.8846,38.2789,88.0743,272.0593,0,U,51640,999,20801,-.10096E-2,-.34E-5,0
ONEWEB-0448,2022-012V,2026-06-07T09:38:45.438720,13.10376217,.0001777,87.8844,38.2299,77.8794,282.2533,0,U,51641,999,20801,-.53251E-3,-.173E-5,0
ONEWEB-0449,2022-012W,2026-06-07T09:45:57.254688,13.10303902,.0002169,87.8857,38.2128,93.4389,266.6986,0,U,51642,999,20802,.41717E-1,.14583E-3,0
ONEWEB-0451,2022-012X,2026-06-07T08:05:29.505120,13.17648788,.0002051,87.9152,7.8018,84.3163,275.8202,0,U,51643,999,21236,-.18288E-3,-.58E-6,0
ONEWEB-0452,2022-012Y,2026-06-07T08:03:02.633760,13.17649278,.0001938,87.9143,7.8397,79.2734,280.8615,0,U,51644,999,21237,-.91582E-4,-.23E-6,0
ONEWEB-0456,2022-012AA,2026-06-07T10:00:15.243840,13.10372312,.0001703,87.8849,38.1987,76.9997,283.1320,0,U,51646,999,20806,.16709E-2,.596E-5,0
ONEWEB-0457,2022-012AB,2026-06-07T09:26:34.524096,13.10373995,.0002017,87.8849,38.2216,92.1386,267.9972,0,U,51647,999,20806,-.15993E-2,-.546E-5,0
ONEWEB-0458,2022-012AC,2026-06-07T09:57:53.503776,13.10389661,.0001874,87.8855,38.2047,76.2339,283.8997,0,U,51648,999,20802,-.10969E-2,-.37E-5,0
ONEWEB-0461,2022-012AD,2026-06-07T06:45:16.744320,13.17648095,.0001877,87.9151,7.8270,90.6777,269.4570,0,U,51649,999,21258,-.29621E-5,.12E-6,0
ONEWEB-0463,2022-012AE,2026-06-06T15:43:46.934976,13.17649029,.0001893,87.9141,7.9751,92.4505,267.6843,0,U,51650,999,21228,-.36802E-3,-.13E-5,0
ONEWEB-0464,2022-012AF,2026-06-07T09:53:06.374976,13.10374673,.000177,87.8832,38.2278,74.4919,285.6404,0,U,51651,999,20804,.1148E-2,.413E-5,0
ONEWEB-0468,2022-012AG,2026-06-07T10:02:40.476192,13.10373335,.0001702,87.8814,38.2205,74.2852,285.8463,0,U,51652,999,20802,.15978E-2,.57E-5,0
ONEWEB-0473,2022-012AH,2026-06-07T09:41:08.423808,13.10375425,.0001844,87.8845,38.2250,77.9236,282.2098,0,U,51653,999,20802,-.17157E-3,-.47E-6,0
ONEWEB-0474,2022-012AJ,2026-06-07T09:29:10.396608,13.10374146,.000174,87.8852,38.2103,71.4992,288.6324,0,U,51654,999,20801,-.12192E-2,-.413E-5,0
ONEWEB-0475,2022-012AK,2026-06-07T06:35:34.412640,13.17648538,.0001799,87.9143,7.8447,65.9336,294.1984,0,U,51655,999,21238,-.14196E-3,-.42E-6,0
ONEWEB-0490,2022-138A,2026-06-07T03:02:32.268768,13.19724288,.0001636,87.9170,306.9710,96.5569,263.5750,0,U,54113,999,17550,.10501E-3,.55E-6,0
ONEWEB-0492,2022-138B,2026-06-07T03:38:56.927328,13.19725619,.0001677,87.9165,306.9686,103.6004,256.5315,0,U,54114,999,17551,-.15927E-3,-.51E-6,0
ONEWEB-0495,2022-138C,2026-06-07T03:07:05.162304,13.19724792,.0001175,87.9162,306.9753,92.1005,268.0262,0,U,54115,999,17549,.13863E-3,.68E-6,0
ONEWEB-0497,2022-138D,2026-06-07T07:03:38.047104,13.19723970,.0001775,87.9167,306.9343,97.8121,262.3213,0,U,54116,999,17550,.4421E-3,.19E-5,0
